OBJECT_NAME,OBJECT_ID,EPOCH,MEAN_MOTION,ECCENTRICITY,INCLINATION,RA_OF_ASC_NODE,ARG_OF_PERICENTER,MEAN_ANOMALY,EPHEMERIS_TYPE,CLASSIFICATION_TYPE,NORAD_CAT_ID,ELEMENT_SET_NO,REV_AT_EPOCH,BSTAR,MEAN_MOTION_DOT,MEAN_MOTION_DDOT
SL-8 R/B,1991-006B,2026-06-10T07:44:05.129376,13.77505439,.0023393,82.9423,101.1404,132.8605,358.2805,0,U,21088,999,77682,.26185E-4,.42E-6,0
OKEAN-3,1991-039A,2026-06-10T11:47:27.939840,15.05294917,.0014527,82.5160,246.8740,22.0878,338.0971,0,U,21397,999,87899,.11689E-3,.1703E-4,0
COSMOS 2151,1991-042A,2026-06-10T12:34:47.843040,15.00418716,.0013784,82.4960,354.1118,103.9460,256.3298,0,U,21422,999,87711,.99008E-4,.1274E-4,0
SL-14 R/B,1991-042B,2026-06-10T07:59:44.968704,14.81898135,.0015602,82.4923,133.3231,299.5789,60.3870,0,U,21423,999,86679,.40808E-4,.346E-5,0
ERS-1,1991-050A,2026-06-10T11:48:36.175968,14.39513013,.0030743,98.7798,182.0264,287.6788,72.1044,0,U,21574,999,82908,.93994E-4,.248E-5,0
ARIANE 40 R/B,1991-050F,2026-06-10T09:24:39.173184,14.42953037,.0003974,98.1877,210.0734,135.9203,224.2305,0,U,21610,999,83236,.82171E-4,.233E-5,0
INTERCOSMOS 25,1991-086A,2026-06-10T06:16:26.173056,12.12187450,.1484271,82.6056,254.0007,277.3473,66.1851,0,U,21819,999,50790,.81242E-4,.407E-5,0
SL-8 R/B,1992-008B,2026-06-10T12:27:37.068192,13.75975103,.0033474,82.9264,198.7452,233.8661,239.5119,0,U,21876,999,72218,.97556E-4,.11E-5,0
SL-8 R/B,1992-020B,2026-06-10T12:44:50.756064,13.75548187,.0030113,82.9305,84.8010,40.6642,137.3356,0,U,21938,999,71389,.25299E-4,.4E-6,0
USA 81,1992-023A,2026-06-10T11:58:15.435264,14.32396392,.0002776,85.0077,77.8675,90.7371,269.4139,0,U,21949,999,10807,.44118E-4,.139E-5,0
COSMOS 2219,1992-076A,2026-06-10T11:17:34.751040,14.14095867,.0016285,71.0574,184.1134,55.1336,305.1315,0,U,22219,999,73149,.60627E-4,.69E-6,0
SL-16 R/B,1992-076B,2026-06-10T12:51:21.976128,14.16871410,.0014523,71.0005,352.7939,307.3244,118.3645,0,U,22220,999,73498,-.62988E-4,-.174E-5,0
COSMOS 2221,1992-080A,2026-06-10T12:28:09.037920,14.96516324,.0012789,82.5032,190.1528,236.7249,123.2748,0,U,22236,999,79467,.10345E-3,.1203E-4,0
SL-16 R/B,1992-093B,2026-06-10T07:36:14.735808,14.15464216,.0004341,71.0200,169.8144,198.8483,161.2480,0,U,22285,999,72626,-.77213E-4,-.198E-5,0
COSMOS 2228,1992-094A,2026-06-10T11:20:56.476896,14.97562105,.0017587,82.5170,148.4740,355.5288,4.5774,0,U,22286,999,78994,.14917E-3,.1772E-4,0
SL-16 R/B,1993-016B,2026-06-10T08:48:17.288064,14.15309749,.0010654,71.0080,20.5329,193.2560,166.8285,0,U,22566,999,71528,.12897E-3,.204E-5,0
COSMOS 2242,1993-024A,2026-06-10T11:54:24.126912,14.96883412,.001602,82.5179,177.9444,359.3222,0.7975,0,U,22626,999,79427,.12089E-3,.1416E-4,0
SL-16 R/B,1993-059B,2026-06-10T06:58:38.135424,14.17245572,.0015038,70.9883,175.8474,66.0040,294.2656,0,U,22803,999,69265,.16334E-3,.282E-5,0
ARIANE 40 R/B,1993-061H,2026-06-10T10:22:09.944256,14.32905016,.0010901,98.4819,228.4292,16.4284,343.7252,0,U,22830,999,70738,.71218E-4,.152E-5,0
COSMOS 2278,1994-023A,2026-06-10T12:40:41.219040,14.14394652,.0010584,71.0545,340.8578,250.7771,109.2206,0,U,23087,999,65793,.19518E-3,.327E-5,0
SL-16 R/B,1994-023B,2026-06-10T11:05:41.843040,14.15020690,.0003209,70.9994,236.0542,193.1808,166.9231,0,U,23088,999,65921,.15997E-3,.262E-5,0
SL-16 R/B,1994-074B,2026-06-10T12:44:29.475744,14.79496654,.0005096,97.6993,188.5290,281.7087,200.6179,0,U,23343,999,70097,.53731E-4,.352E-5,0
SL-16 R/B,1994-077B,2026-06-10T08:05:16.768896,14.15572527,.0002673,70.9805,157.5744,331.6056,28.4920,0,U,23405,999,62934,-.93981E-4,-.232E-5,0
ARIANE 40+ R/B,1995-021B,2026-06-10T10:39:00.945216,14.39829599,.0006003,98.4411,231.6159,215.1873,160.4950,0,U,23561,999,63259,.78236E-4,.202E-5,0
SL-16 R/B,1995-058B,2026-06-10T11:45:18.980928,14.15505313,.0013465,71.0214,345.4205,329.5946,30.4394,0,U,23705,999,58098,.51332E-4,.53E-6,0
SL-16 R/B,1996-051B,2026-06-10T12:22:58.101600,14.12443694,.0014893,70.7636,338.7680,347.0199,13.0535,0,U,24298,999,53475,.92177E-4,.121E-5,0
ORBVIEW 2 (SEASTAR),1997-037A,2026-06-10T07:53:31.949664,14.35549971,.0002993,98.8682,328.1581,130.0629,230.0819,0,U,24883,999,52176,.89087E-4,.21E-5,0
SL-16 R/B,1998-043G,2026-06-10T11:41:17.068704,14.26067510,.0010916,98.8361,115.5887,103.8268,256.4126,0,U,25400,999,45221,.31805E-4,.31E-6,0
SL-16 R/B,1998-045B,2026-06-10T12:37:11.250624,14.16204986,.000951,71.0121,346.3392,249.9846,110.0254,0,U,25407,999,44024,-.14134E-4,-.76E-6,0
ISS (ZARYA),1998-067A,2026-06-10T09:59:31.701696,15.49162374,.0005881,51.6361,333.6061,172.3680,187.7399,0,U,25544,999,57070,.10452E-3,.5345E-4,0
CZ-4B R/B,1999-025C,2026-06-10T01:57:55.660608,14.18282261,.00382355,98.6485,203.0990,79.5153,334.3645,0,U,25732,999,40126,.42296512E-4,.45E-6,0
OKEAN-O,1999-039A,2026-06-10T04:23:54.299040,14.80458962,.0001785,97.9317,220.0612,77.0448,283.0963,0,U,25860,999,44807,.74239E-4,.516E-5,0
SL-16 R/B,1999-039B,2026-06-10T03:27:25.111296,14.81838204,.0013879,97.9840,220.0269,321.7105,38.3121,0,U,25861,999,45055,.59692E-4,.418E-5,0
DELTA 2 R/B,1999-041E,2026-06-10T12:31:48.462816,14.12003883,.0500894,51.7662,290.4209,262.3125,92.0671,0,U,25876,999,37614,.15618E-3,.736E-5,0
HELIOS 1B,1999-064A,2026-06-10T10:53:54.316032,14.87988804,.000245,98.1621,66.3989,100.6466,259.5026,0,U,25977,999,69905,.13601E-3,.1189E-4,0
TERRA,1999-068A,2026-06-10T10:37:02.158176,14.61097651,.000108,97.9459,211.2558,219.0291,197.8052,0,U,25994,999,40862,.72614E-4,.313E-5,0
SL-16 R/B,2000-006B,2026-06-10T11:52:19.443072,14.15835789,.0015172,71.0029,262.6971,33.4755,326.7324,0,U,26070,999,36169,-.11574E-3,-.276E-5,0
TITAN 4B R/B,2000-047B,2026-06-10T10:29:31.151040,15.10157568,.0045587,67.9872,139.5724,294.0227,65.6154,0,U,26474,999,40691,.17021E-3,.2712E-4,0
ENVISAT,2002-009A,2026-06-10T12:22:17.536800,14.39063279,.000134,98.3831,112.9828,90.0685,26.5865,0,U,27386,999,27252,.35667E-4,.67E-6,0
IDEFIX & ARIANE 42P R/B,2002-021B,2026-06-10T06:39:51.793920,14.31078953,.0010595,98.5942,98.8357,276.6196,83.3781,0,U,27422,999,25726,.84991E-4,.18E-5,0
AQUA,2002-022A,2026-06-10T11:50:50.667936,14.62147849,.0001374,98.4274,130.6429,53.4071,55.1749,0,U,27424,999,28229,.14045E-3,.657E-5,0
CZ-4B R/B,2002-024C,2026-06-10T10:35:31.203168,14.14563323,.0051119,98.8702,214.3051,119.0003,258.0087,0,U,27432,999,24235,.32585E-4,.19E-6,0
MIDORI II (ADEOS-II),2002-056A,2026-06-10T11:42:35.156160,14.29345960,.0002227,98.7875,120.6909,86.0647,274.0789,0,U,27597,999,22355,.10388E-3,.219E-5,0
H-2A R/B,2002-056E,2026-06-10T12:46:36.958080,14.33819216,.0068953,98.3309,118.4496,244.6879,230.4077,0,U,27601,999,22741,.69464E-4,.156E-5,0
CZ-4B R/B,2003-049C,2026-06-10T11:49:02.285184,14.55095730,.0047178,98.6897,160.0724,309.5004,50.2025,0,U,28059,999,20009,.74572E-4,.274E-5,0
CZ-2C R/B,2004-012C,2026-06-10T04:28:01.833312,15.77651761,.0008787,97.7090,236.0413,314.2005,45.8537,0,U,28222,999,21879,.55763E-3,.93739E-3,0
SL-16 R/B,2004-021B,2026-06-10T02:09:43.510752,14.14611503,.0007486,71.0018,38.5845,262.9856,97.0415,0,U,28353,999,13590,-.11066E-3,-.26E-5,0
CZ-4B R/B,2004-035C,2026-06-10T01:43:33.583008,15.30522421,.00307574,97.3374,194.2258,3.7958,356.3510,0,U,28415,999,19403,.24794372E-3,.7345E-4,0
CZ-2C R/B,2004-046B,2026-06-10T11:02:48.769152,14.27025110,.0138199,98.1950,70.6611,240.2899,118.4470,0,U,28480,999,12173,.35134E-4,.52E-6,0
ARIANE 5 R/B,2004-049H,2026-06-10T04:36:41.202720,14.85439408,.00849133,98.2717,333.1753,51.8919,308.9912,0,U,28499,999,15952,.79817229E-4,.669E-5,0
CZ-2D R/B,2005-024B,2026-06-10T00:19:07.768704,15.68777677,.00045291,97.3493,180.0872,70.4609,289.7141,0,U,28738,999,15421,.48753878E-3,.55816E-3,0
ALOS (DAICHI),2006-002A,2026-06-10T11:42:53.536896,14.70036659,.0001707,98.1320,117.0765,59.8340,300.3034,0,U,28931,999,8711,.15779E-3,.897E-5,0
H-2A R/B,2006-002B,2026-06-10T07:56:43.877760,15.17975862,.0049642,98.2554,316.5410,286.2738,73.3036,0,U,28932,999,10848,.27941E-3,.5777E-4,0
RESURS-DK 1,2006-021A,2026-06-09T23:05:38.023296,15.13185061,.00065763,69.9339,358.2552,297.4803,62.5694,0,U,29228,999,10148,.12796544E-3,.2168E-4,0
CZ-4B R/B,2006-046C,2026-06-10T09:30:41.043168,15.17734205,.0031239,97.5460,206.0243,307.5685,52.2711,0,U,29507,999,7410,.18988E-3,.3808E-4,0
CZ-2C R/B,2007-010B,2026-06-10T07:07:29.752032,14.20274655,.0059427,98.4092,269.9850,26.0810,334.3340,0,U,31114,999,99286,.46457E-4,.6E-6,0
COSMO-SKYMED 1,2007-023A,2026-06-10T12:26:00.414240,14.97068431,.0001017,97.8852,353.3188,85.1944,274.9394,0,U,31598,999,2879,.17639E-3,.1973E-4,0
COSMOS 2428,2007-029A,2026-06-10T06:38:07.989504,14.12929481,.0007234,70.9373,8.9882,148.2749,211.8810,0,U,31792,999,97717,-.61947425E-4,-.163E-5,0
SL-16 R/B,2007-029B,2026-06-10T06:35:22.270848,14.14851315,.00022143,70.9762,337.7600,258.9828,279.1441,0,U,31793,999,97846,.18488524E-3,.309E-5,0
KORONAS-FOTON,2009-003A,2026-06-10T11:24:04.574016,15.45583088,.0010979,82.4293,179.2606,169.8221,190.3252,0,U,33504,999,96006,.20672E-3,.9999E-4,0
CZ-2C R/B,2011-030B,2026-06-10T11:59:50.056224,14.81454851,.0053514,97.8652,117.0069,49.3490,67.7526,0,U,37731,999,80383,.14769E-3,.113E-4,0
H-2A R/B,2012-025E,2026-06-10T11:12:34.224192,14.95679165,.0044122,98.4814,136.0584,11.0726,349.1453,0,U,38341,999,76208,.25453E-3,.2816E-4,0
SHIJIAN-16 (SJ-16),2013-057A,2026-06-10T12:52:46.249824,14.92595561,.0016926,74.9736,9.2798,246.1949,113.7465,0,U,39358,999,68535,.89179E-4,.89E-5,0
SL-4 R/B,2014-021B,2026-06-10T12:25:34.115808,15.41813273,.0091532,51.6054,243.4430,81.7386,279.3966,0,U,39679,999,67058,.21705E-3,.10415E-3,0
ALOS-2,2014-029A,2026-06-10T12:16:03.544896,14.79468594,.0001595,97.9219,258.7705,97.7602,262.3790,0,U,39766,999,65059,.16729E-3,.1198E-4,0
YAOGAN-29,2015-069A,2026-06-10T13:34:56.301888,14.83080243,.0002847,98.0034,190.1884,65.5655,294.5855,0,U,41038,999,56964,.86852E-4,.653E-5,0
ASTRO-H (HITOMI),2016-012A,2026-06-10T03:53:03.017472,15.10480260,.00096635,30.9976,119.5585,183.6893,176.3675,0,U,41337,999,56622,.11946149E-3,.2113E-4,0
